LEMUR-2-DEMBITZ         
1 42842U 17042T   26068.47492167  .00020231  00000+0  76561-3 0  9991
2 42842  97.3807 250.9241 0006961  17.1421 343.0051 15.26947128473114
STARLINK-30539          
1 58004U 23153P   26068.04611581 -.00012867  00000+0 -47046-3 0  9998
2 58004  42.9977  70.1915 0000797 178.2383 181.8471 15.26767353134794
